[Satellite]
VERSION=1.1
NAME=CHINASAT 1A (ZX 1A)
NICKNAME=CHINASAT 1A (ZX 1A)
TLE1=1 37804U 11047A   15054.68566919 -.00000364  00000-0  10000-3 0  9998
TLE2=2 37804   0.0480 281.0528 0001328  22.3903 226.4215  1.00268106 12666
